SL-16 R/B               
1 23405U 94077B   26166.28347177 -.00000013  00000+0  17717-4 0  9992
2 23405  70.9808 147.1674 0002843 329.2161  30.8795 14.15571751630041
ARIANE 40+ R/B          
1 23561U 95021B   26166.17673197  .00000218  00000+0  83276-4 0  9996
2 23561  98.4411 236.2806 0006313 199.8513 214.4832 14.39832278633274
SL-16 R/B               
1 23705U 95058B   26166.22450741  .00000264  00000+0  15921-3 0  9992
2 23705  71.0218 335.4792 0013659 323.2089  36.8095 14.15507287581658
SL-16 R/B               
1 24298U 96051B   26166.19004949  .00000107  00000+0  84406-4 0  9996
2 24298  70.7640 328.8755 0015305 339.8928  20.1586 14.12445217535416
ORBVIEW 2 (SEASTAR)     
1 24883U 97037A   26166.06839596  .00000168  00000+0  74490-4 0  9990
2 24883  98.8685 333.0287 0003144 120.2279 239.9217 14.35552322522444
SL-16 R/B               
1 25400U 98043G   26166.11772856  .00000025  00000+0  29462-4 0  9996
2 25400  98.8363 120.2591 0010934  91.7201 268.5231 14.26068279452875
SL-16 R/B               
1 25407U 98045B   26165.90503263 -.00000233  00000+0 -93254-4 0  9998
2 25407  71.0119 337.1294 0009495 244.3390 115.6753 14.16204044440866
ISS (ZARYA)             
1 25544U 98067A   26166.18985271  .00007715  00000+0  14683-3 0  9996
2 25544  51.6338 309.9786 0004834 187.9159 172.1754 15.49238068571443
CZ-4B R/B               
1 25732U 99025C   26166.09081672  .00000051  00000+0  44988-4 0  9990
2 25732  98.6484 207.9820 0038141  65.5243 348.5871 14.18283098401971
OKEAN-O                 
1 25860U 99039A   26166.18475084  .00000508  00000+0  73267-4 0  9990
2 25860  97.9318 225.0056 0001670  73.5258 286.6137 14.80464977448812
SL-16 R/B               
1 25861U 99039B   26166.14086419  .00000436  00000+0  61938-4 0  9999
2 25861  97.9839 225.0097 0013563 304.1618  55.8308 14.81843453451296
DELTA 2 R/B             
1 25876U 99041E   26165.55655418  .00000725  00000+0  15449-3 0  9999
2 25876  51.7658 274.3052 0500857 274.2393  80.1479 14.12012204376710
HELIOS 1B               
1 25977U 99064A   26166.22852759  .00001212  00000+0  13840-3 0  9993
2 25977  98.1618  71.3116 0002475  93.8162 266.3336 14.88001827699766
TERRA                   
1 25994U 99068A   26166.23382523  .00000327  00000+0  75511-4 0  9994
2 25994  97.9457 215.8575 0001432 196.7910 207.7502 14.61101637409329
SL-16 R/B               
1 26070U 00006B   26166.29892140 -.00000151  00000+0 -52370-4 0  9996
2 26070  71.0022 252.5954 0015440  25.8747 334.3145 14.15834207362377
TITAN 4B R/B            
1 26474U 00047B   26166.27204423  .00002591  00000+0  16285-3 0  9990
2 26474  67.9879 125.9637 0045690 289.1587  70.4620 15.10187312407647
ENVISAT                 
1 27386U 02009A   26166.31471975  .00000061  00000+0  33781-4 0  9997
2 27386  98.3834 117.6748 0001336  89.0235  36.3180 14.39064398273210
IDEFIX & ARIANE 42P R/B 
1 27422U 02021B   26166.31172328  .00000163  00000+0  78658-4 0  9997
2 27422  98.5943 103.8151 0010567 260.0727  99.9263 14.31081276257981
AQUA                    
1 27424U 02022A   26166.28310406  .00000653  00000+0  13966-3 0  9991
2 27424  98.4277 135.5279 0001176  53.2323  50.9789 14.62155467282992
CZ-4B R/B               
1 27432U 02024C   26166.11722387  .00000042  00000+0  44320-4 0  9990
2 27432  98.8701 218.9509 0051177 105.9834 309.3801 14.14564054243016
MIDORI II (ADEOS-II)    
1 27597U 02056A   26166.17802017  .00000204  00000+0  98033-4 0  9992
2 27597  98.7878 125.4208 0002214  79.7815 280.3616 14.29348609224221
H-2A R/B                
1 27601U 02056E   26166.11778222  .00000148  00000+0  66485-4 0  9995
2 27601  98.3311 122.8677 0069095 230.8133 139.3795 14.33821225228072
CZ-4B R/B               
1 28059U 03049C   26165.96203226  .00000250  00000+0  69043-4 0  9992
2 28059  98.6895 164.7200 0047026 295.5546  64.0792 14.55098860200743
CZ-2C R/B               
1 28222U 04012C   26166.19535017  .00083953  00000+0  47830-3 0  9997
2 28222  97.7094 241.6267 0009181 291.9610  68.0680 15.78647090219589
SL-16 R/B               
1 28353U 04021B   26165.96921084 -.00000269  00000+0 -11495-3 0  9998
2 28353  71.0011  28.3445 0007359 257.4479 102.5820 14.14609309136590
CZ-4B R/B               
1 28415U 04035C   26165.97522935  .00007464  00000+0  25145-3 0  9994
2 28415  97.3364 199.0735 0030135 346.0943  13.9465 15.30599212194783
CZ-2C R/B               
1 28480U 04046B   26166.22823323  .00000064  00000+0  39255-4 0  9999
2 28480  98.1947  75.1314 0138387 226.0950 132.8740 14.27026136122414
ARIANE 5 R/B            
1 28499U 04049H   26165.97472376  .00000576  00000+0  69738-4 0  9998
2 28499  98.2719 338.1423 0084649  36.5368 324.1580 14.85446411160239
CZ-2D R/B               
1 28738U 05024B   26165.98773673  .00050365  00000+0  43034-3 0  9994
2 28738  97.3480 185.3063 0003668  60.3608 299.8019 15.69342618154994
ALOS (DAICHI)           
1 28931U 06002A   26166.32081111  .00000891  00000+0  15680-3 0  9999
2 28931  98.1323 121.8940 0001525  58.2131 301.9223 14.70046770 87820
